FLOCK 2P-10             
1 41612U 16040P   17345.82261215  .00001448  00000-0  63397-4 0  9991
2 41612  97.4421  47.3231 0010896 172.8739 187.2654 15.23616364 81700
